[
    {
        "Altitude(m)": 624792.7798386636,
        "Argument of Periapsis(deg)": 0.0,
        "Eccentricity": 0.0,
        "Inclination(deg)": 60.0,
        "Latitude(deg)": -59.14711111745567,
        "Longitude(deg)": -5.973430063456479,
        "Mean Anomaly(deg)": -98.18180000000002,
        "RAAN(deg)": 200.0,
        "Satellite Name": "Test1 896",
        "Satellite Number": 896,
        "Semi-Major Axis(m)": 6980739.136638005,
        "Time(s)": 0
    },
    {
        "Altitude(m)": 624842.1712006633,
        "Argument of Periapsis(deg)": 0.00010418945913296404,
        "Eccentricity": 0.0,
        "Inclination(deg)": 60.0,
        "Latitude(deg)": -59.28919272711341,
        "Longitude(deg)": -4.843924304515116,
        "Mean Anomaly(deg)": -97.56169385453816,
        "RAAN(deg)": 199.99957995086027,
        "Satellite Name": "Test1 896",
        "Satellite Number": 896,
        "Semi-Major Axis(m)": 6980739.136638005,
        "Time(s)": 10
    },
    {
        "Altitude(m)": 624887.7383008782,
        "Argument of Periapsis(deg)": 0.0002083789182659281,
        "Eccentricity": 0.0,
        "Inclination(deg)": 60.0,
        "Latitude(deg)": -59.420663461064144,
        "Longitude(deg)": -3.7049981062555664,
        "Mean Anomaly(deg)": -96.94158770907633,
        "RAAN(deg)": 199.9991599017205,
        "Satellite Name": "Test1 896",
        "Satellite Number": 896,
        "Semi-Major Axis(m)": 6980739.136638005,
        "Time(s)": 20
    },
    {
        "Altitude(m)": 624929.4631762882,
        "Argument of Periapsis(deg)": 0.00031256837739889213,
        "Eccentricity": 0.0,
        "Inclination(deg)": 60.0,
        "Latitude(deg)": -59.54138601964987,
        "Longitude(deg)": -2.5572737813598243,
        "Mean Anomaly(deg)": -96.32148156361448,
        "RAAN(deg)": 199.99873985258077,
        "Satellite Name": "Test1 896",
        "Satellite Number": 896,
        "Semi-Major Axis(m)": 6980739.136638005,
        "Time(s)": 30
    },
    {
        "Altitude(m)": 624967.3293750399,
        "Argument of Periapsis(deg)": 0.0004167578365318562,
        "Eccentricity": 0.0,
        "Inclination(deg)": 60.0,
        "Latitude(deg)": -59.65123223675589,
        "Longitude(deg)": -1.4014086269972168,
        "Mean Anomaly(deg)": -95.70137541815267,
        "RAAN(deg)": 199.99831980344103,
        "Satellite Name": "Test1 896",
        "Satellite Number": 896,
        "Semi-Major Axis(m)": 6980739.136638005,
        "Time(s)": 40
    },
    {
        "Altitude(m)": 625001.3219633844,
        "Argument of Periapsis(deg)": 0.0005209472956648203,
        "Eccentricity": 0.0,
        "Inclination(deg)": 60.0,
        "Latitude(deg)": -59.75008371889749,
        "Longitude(deg)": -0.23809408804374282,
        "Mean Anomaly(deg)": -95.0812692726908,
        "RAAN(deg)": 199.9978997543013,
        "Satellite Name": "Test1 896",
        "Satellite Number": 896,
        "Semi-Major Axis(m)": 6980739.136638005,
        "Time(s)": 50
    },
    {
        "Altitude(m)": 625031.4275319643,
        "Argument of Periapsis(deg)": 0.0006251367547977843,
        "Eccentricity": 0.0,
        "Inclination(deg)": 60.0,
        "Latitude(deg)": -59.83783245122851,
        "Longitude(deg)": 0.9319469172703665,
        "Mean Anomaly(deg)": -94.46116312722907,
        "RAAN(deg)": 199.99747970516154,
        "Satellite Name": "Test1 896",
        "Satellite Number": 896,
        "Semi-Major Axis(m)": 6980739.136638005,
        "Time(s)": 60
    },
    {
        "Altitude(m)": 625057.6342014766,
        "Argument of Periapsis(deg)": 0.0007293262139307483,
        "Eccentricity": 0.0,
        "Inclination(deg)": 60.0,
        "Latitude(deg)": -59.91438136363939,
        "Longitude(deg)": 2.1079629861723945,
        "Mean Anomaly(deg)": -93.84105698176722,
        "RAAN(deg)": 199.9970596560218,
        "Satellite Name": "Test1 896",
        "Satellite Number": 896,
        "Semi-Major Axis(m)": 6980739.136638005,
        "Time(s)": 70
    },
    {
        "Altitude(m)": 625079.9316276608,
        "Argument of Periapsis(deg)": 0.0008335156730637124,
        "Eccentricity": 0.0,
        "Inclination(deg)": 60.0,
        "Latitude(deg)": -59.97964485031693,
        "Longitude(deg)": 3.2891760058389075,
        "Mean Anomaly(deg)": -93.2209508363054,
        "RAAN(deg)": 199.99663960688207,
        "Satellite Name": "Test1 896",
        "Satellite Number": 896,
        "Semi-Major Axis(m)": 6980739.136638005,
        "Time(s)": 80
    },
    {
        "Altitude(m)": 625098.3110056614,
        "Argument of Periapsis(deg)": 0.0009377051321966765,
        "Eccentricity": 0.0,
        "Inclination(deg)": 60.0,
        "Latitude(deg)": -60.03354923648364,
        "Longitude(deg)": 4.474784717917466,
        "Mean Anomaly(deg)": -92.60084469084354,
        "RAAN(deg)": 199.99621955774234,
        "Satellite Name": "Test1 896",
        "Satellite Number": 896,
        "Semi-Major Axis(m)": 6980739.136638005,
        "Time(s)": 90
    },
    {
        "Altitude(m)": 625112.7650737354,
        "Argument of Periapsis(deg)": 0.0010418945913296407,
        "Eccentricity": 0.0,
        "Inclination(deg)": 60.0,
        "Latitude(deg)": -60.07603318652747,
        "Longitude(deg)": 5.663968533503487,
        "Mean Anomaly(deg)": -91.98073854538171,
        "RAAN(deg)": 199.99579950860257,
        "Satellite Name": "Test1 896",
        "Satellite Number": 896,
        "Semi-Major Axis(m)": 6980739.136638005,
        "Time(s)": 100
    },
    {
        "Altitude(m)": 625123.2881163047,
        "Argument of Periapsis(deg)": 0.0011460840504626045,
        "Eccentricity": 0.0,
        "Inclination(deg)": 60.0,
        "Latitude(deg)": -60.10704804834233,
        "Longitude(deg)": 6.855890054062738,
        "Mean Anomaly(deg)": -91.36063239991987,
        "RAAN(deg)": 199.99537945946284,
        "Satellite Name": "Test1 896",
        "Satellite Number": 896,
        "Semi-Major Axis(m)": 6980739.136638005,
        "Time(s)": 110
    },
    {
        "Altitude(m)": 625129.8759663719,
        "Argument of Periapsis(deg)": 0.0012502735095955685,
        "Eccentricity": 0.0,
        "Inclination(deg)": 60.0,
        "Latitude(deg)": -60.12655812941813,
        "Longitude(deg)": 8.049699287977406,
        "Mean Anomaly(deg)": -90.74052625445805,
        "RAAN(deg)": 199.9949594103231,
        "Satellite Name": "Test1 896",
        "Satellite Number": 896,
        "Semi-Major Axis(m)": 6980739.136638005,
        "Time(s)": 120
    },
    {
        "Altitude(m)": 625132.526007274,
        "Argument of Periapsis(deg)": 0.0013544629687285324,
        "Eccentricity": 0.0,
        "Inclination(deg)": 60.0,
        "Latitude(deg)": -60.13454090105566,
        "Longitude(deg)": 9.244538009996194,
        "Mean Anomaly(deg)": -90.12042010899617,
        "RAAN(deg)": 199.9945393611833,
        "Satellite Name": "Test1 896",
        "Satellite Number": 896,
        "Semi-Major Axis(m)": 6980739.136638005,
        "Time(s)": 130
    },
    {
        "Altitude(m)": 625131.2371737859,
        "Argument of Periapsis(deg)": 0.0014586524278614966,
        "Eccentricity": 0.0,
        "Inclination(deg)": 60.0,
        "Latitude(deg)": -60.13098712799481,
        "Longitude(deg)": 10.439542707863916,
        "Mean Anomaly(deg)": -89.50031396353435,
        "RAAN(deg)": 199.9941193120436,
        "Satellite Name": "Test1 896",
        "Satellite Number": 896,
        "Semi-Major Axis(m)": 6980739.136638005,
        "Time(s)": 140
    },
    {
        "Altitude(m)": 625126.0099525613,
        "Argument of Periapsis(deg)": 0.0015628418869944607,
        "Eccentricity": 0.0,
        "Inclination(deg)": 60.0,
        "Latitude(deg)": -60.11590092171411,
        "Longitude(deg)": 11.633849096898949,
        "Mean Anomaly(deg)": -88.8802078180725,
        "RAAN(deg)": 199.99369926290387,
        "Satellite Name": "Test1 896",
        "Satellite Number": 896,
        "Semi-Major Axis(m)": 6980739.136638005,
        "Time(s)": 150
    },
    {
        "Altitude(m)": 625116.8463819539,
        "Argument of Periapsis(deg)": 0.0016670313461274247,
        "Eccentricity": 0.0,
        "Inclination(deg)": 60.0,
        "Latitude(deg)": -60.089299716687,
        "Longitude(deg)": 12.826596643485177,
        "Mean Anomaly(deg)": -88.26010167261067,
        "RAAN(deg)": 199.9932792137641,
        "Satellite Name": "Test1 896",
        "Satellite Number": 896,
        "Semi-Major Axis(m)": 6980739.136638005,
        "Time(s)": 160
    },
    {
        "Altitude(m)": 625103.7500511314,
        "Argument of Periapsis(deg)": 0.0017712208052603888,
        "Eccentricity": 0.0,
        "Inclination(deg)": 60.0,
        "Latitude(deg)": -60.05121416991785,
        "Longitude(deg)": 14.016931538256102,
        "Mean Anomaly(deg)": -87.63999552714893,
        "RAAN(deg)": 199.99285916462435,
        "Satellite Name": "Test1 896",
        "Satellite Number": 896,
        "Semi-Major Axis(m)": 6980739.136638005,
        "Time(s)": 170
    },
    {
        "Altitude(m)": 625086.7260986015,
        "Argument of Periapsis(deg)": 0.001875410264393353,
        "Eccentricity": 0.0,
        "Inclination(deg)": 60.0,
        "Latitude(deg)": -60.00168798510034,
        "Longitude(deg)": 15.204011099170128,
        "Mean Anomaly(deg)": -87.019889381687,
        "RAAN(deg)": 199.99243911548464,
        "Satellite Name": "Test1 896",
        "Satellite Number": 896,
        "Semi-Major Axis(m)": 6980739.136638005,
        "Time(s)": 180
    },
    {
        "Altitude(m)": 625065.7812100251,
        "Argument of Periapsis(deg)": 0.0019795997235263173,
        "Eccentricity": 0.0,
        "Inclination(deg)": 60.0,
        "Latitude(deg)": -59.940777663746154,
        "Longitude(deg)": 16.387008047824626,
        "Mean Anomaly(deg)": -86.39978323622525,
        "RAAN(deg)": 199.9920190663449,
        "Satellite Name": "Test1 896",
        "Satellite Number": 896,
        "Semi-Major Axis(m)": 6980739.136638005,
        "Time(s)": 190
    }
]